
# Worst residual: 34.43 km
# MJD 59197.000000 (2020 Dec 14  0:00)
1973-078A = IMP-8 = NORAD 06893
1 06893U 73078A   20349.49919926  .00000000  00000-0  00000-0 0  7222
2 06893 051.5740 334.8099 2043023 047.6838 228.6049 00.07959963    05

# Worst residual: 53.15 km
# MJD 59198.000000 (2020 Dec 15  0:00)
1973-078A = IMP-8 = NORAD 06893
1 06893U 73078A   20350.49919926  .00000000  00000-0  00000-0 0  7224
2 06893 051.5696 334.3672 1974431 046.2106 258.5085 00.07861653    05

# Worst residual: 65.65 km
# MJD 59199.000000 (2020 Dec 16  0:00)
1973-078A = IMP-8 = NORAD 06893
1 06893U 73078A   20351.49919926  .00000000  00000-0  00000-0 0  7225
2 06893 051.7113 333.9032 1901946 044.9475 287.4026 00.07798835    08

# Worst residual: 36.28 km
# MJD 59200.000000 (2020 Dec 17  0:00)
1973-078A = IMP-8 = NORAD 06893
1 06893U 73078A   20352.49919926  .00000000  00000-0  00000-0 0  7226
2 06893 051.8362 333.7010 1817137 046.2637 313.6607 00.07886947    01

# Worst residual: 18.02 km
# MJD 59201.000000 (2020 Dec 18  0:00)
1973-078A = IMP-8 = NORAD 06893
1 06893U 73078A   20353.49919926  .00000000  00000-0  00000-0 0  7227
2 06893 051.8407 333.6437 1755406 048.3369 340.2583 00.07999285    07

# Worst residual: 19.87 km
# MJD 59202.000000 (2020 Dec 19  0:00)
1973-078A = IMP-8 = NORAD 06893
1 06893U 73078A   20354.49919926  .00000000  00000-0  00000-0 0  7228
2 06893 051.8394 333.6173 1743234 049.5655 008.1953 00.08021656    06

# Worst residual: 11.62 km
# MJD 59203.000000 (2020 Dec 20  0:00)
1973-078A = IMP-8 = NORAD 06893
1 06893U 73078A   20355.49919926  .00000000  00000-0  00000-0 0  7229
2 06893 051.8286 333.6209 1750593 050.5609 036.2347 00.07995507    06

# Worst residual: 5.54 km
# MJD 59204.000000 (2020 Dec 21  0:00)
1973-078A = IMP-8 = NORAD 06893
1 06893U 73078A   20356.49919926  .00000000  00000-0  00000-0 0  7220
2 06893 051.7954 333.6141 1751206 051.2205 064.3788 00.07973622    09

# Worst residual: 2.57 km
# MJD 59205.000000 (2020 Dec 22  0:00)
1973-078A = IMP-8 = NORAD 06893
1 06893U 73078A   20357.49919926  .00000000  00000-0  00000-0 0  7221
2 06893 051.7643 333.5775 1747676 051.3441 092.9712 00.07970631    06

# Worst residual: 4.23 km
# MJD 59206.000000 (2020 Dec 23  0:00)
1973-078A = IMP-8 = NORAD 06893
1 06893U 73078A   20358.49919926  .00000000  00000-0  00000-0 0  7222
2 06893 051.7486 333.5305 1746433 051.1809 121.8703 00.07976202    08

# Worst residual: 4.07 km
# MJD 59207.000000 (2020 Dec 24  0:00)
1973-078A = IMP-8 = NORAD 06893
1 06893U 73078A   20359.49919926  .00000000  00000-0  00000-0 0  7223
2 06893 051.7433 333.4896 1744802 051.0337 150.7770 00.07978062    08

# Worst residual: 2.84 km
# MJD 59208.000000 (2020 Dec 25  0:00)
1973-078A = IMP-8 = NORAD 06893
1 06893U 73078A   20360.49919926  .00000000  00000-0  00000-0 0  7225
2 06893 051.7382 333.4579 1738652 050.9875 179.5380 00.07971738    09

# Worst residual: 5.57 km
# MJD 59209.000000 (2020 Dec 26  0:00)
1973-078A = IMP-8 = NORAD 06893
1 06893U 73078A   20361.49919926  .00000000  00000-0  00000-0 0  7226
2 06893 051.7272 333.4302 1727335 051.0196 208.1043 00.07960036    09

# Worst residual: 8.52 km
# MJD 59210.000000 (2020 Dec 27  0:00)
1973-078A = IMP-8 = NORAD 06893
1 06893U 73078A   20362.49919926  .00000000  00000-0  00000-0 0  7227
2 06893 051.7096 333.4014 1714185 051.1548 236.4332 00.07951974    00

# Worst residual: 10.31 km
# MJD 59211.000000 (2020 Dec 28  0:00)
1973-078A = IMP-8 = NORAD 06893
1 06893U 73078A   20363.49919926  .00000000  00000-0  00000-0 0  7228
2 06893 051.6866 333.3672 1701007 051.5214 264.4660 00.07957958    09

# Worst residual: 9.86 km
# MJD 59212.000000 (2020 Dec 29  0:00)
1973-078A = IMP-8 = NORAD 06893
1 06893U 73078A   20364.49919926  .00000000  00000-0  00000-0 0  7229
2 06893 051.6628 333.3233 1685651 052.2132 292.2608 00.07984030    03

# Worst residual: 7.19 km
# MJD 59213.000000 (2020 Dec 30  0:00)
1973-078A = IMP-8 = NORAD 06893
1 06893U 73078A   20365.49919926  .00000000  00000-0  00000-0 0  7220
2 06893 051.6477 333.2722 1666671 053.0665 320.1404 00.08023027    04

# Worst residual: 9.94 km
# MJD 59214.000000 (2020 Dec 31  0:00)
1973-078A = IMP-8 = NORAD 06893
1 06893U 73078A   20366.49919926  .00000000  00000-0  00000-0 0  7221
2 06893 051.6454 333.2311 1652855 053.7866 348.4378 00.08051570    09
